ONEWEB-0412             
1 50489U 21132W   26040.93542226  .00000009  00000+0 -10667-4 0  9993
2 50489  87.9228   0.7210 0001619  75.8083 284.3228 13.18687523204887
ONEWEB-0413             
1 50490U 21132X   26040.94037013  .00000000  00000+0 -33333-4 0  9995
2 50490  87.9216   0.7271 0001558  84.7100 275.4210 13.18684128204828
ONEWEB-0414             
1 50491U 21132Y   26040.84966560 -.00000003  00000+0 -39659-4 0  9994
2 50491  87.9222   0.7143 0001815  76.0657 284.0677 13.18685937204845
ONEWEB-0417             
1 50492U 21132Z   26040.93376256 -.00000132  00000+0 -36807-3 0  9996
2 50492  87.9215   0.7276 0002083  80.0139 280.1228 13.18687097204830
ONEWEB-0418             
1 50493U 21132AA  26040.94353679 -.00000024  00000+0 -94567-4 0  9990
2 50493  87.9226   0.7131 0002332  79.6376 280.5019 13.18687076204892
ONEWEB-0419             
1 50494U 21132AB  26040.88594142  .00000057  00000+0  11146-3 0  9991
2 50494  87.9226   0.7243 0002149  84.6132 275.5245 13.18688012204806
ONEWEB-0420             
1 50495U 21132AC  26040.85129397 -.00000006  00000+0 -47693-4 0  9998
2 50495  87.9225   0.7445 0001708  85.5826 274.5501 13.18687914204792
ONEWEB-0421             
1 50496U 21132AD  26040.84470067  .00000033  00000+0  51315-4 0  9995
2 50496  87.9222   0.7376 0001784  71.2070 288.9255 13.18687753204831
ONEWEB-0424             
1 50497U 21132AE  26040.88099528  .00000018  00000+0  14128-4 0  9993
2 50497  87.9226   0.7252 0002097  88.5628 271.5745 13.18687405204866
ONEWEB-0426             
1 50498U 21132AF  26040.84140339  .00000041  00000+0  70938-4 0  9994
2 50498  87.9226   0.7252 0002162  63.4057 296.7297 13.18687578204804
ONEWEB-0427             
1 50499U 21132AG  26040.87934463  .00000034  00000+0  52807-4 0  9994
2 50499  87.9224   0.7038 0002101  77.1198 283.0169 13.18685274204837
ONEWEB-0429             
1 50500U 21132AH  26040.94200933 -.00000082  00000+0 -24179-3 0  9998
2 50500  87.9226   0.7245 0001717  84.5873 275.5455 13.18687540204816
ONEWEB-0430             
1 50501U 21132AJ  26040.93048431  .00000006  00000+0 -16478-4 0  9990
2 50501  87.9222   0.7234 0001879  90.3544 269.7804 13.18686863204854
ONEWEB-0432             
1 50502U 21132AK  26040.88691028 -.00000020  00000+0 -82392-4 0  9996
2 50502  87.9220   0.7008 0002576  86.2707 273.8720 13.18642537204800
ONEWEB-0440             
1 50503U 21132AL  26040.95026567 -.00000054  00000+0 -17077-3 0  9999
2 50503  87.9226   0.7088 0001473  75.2365 284.8930 13.18687526204800
ONEWEB-0450             
1 50504U 21132AM  26040.94379570 -.00000141  00000+0 -39086-3 0  9995
2 50504  87.9216   0.7285 0001686  93.2387 266.8938 13.18687342204836
ONEWEB-0410             
1 51622U 22012A   26041.02420298  .00000061  00000+0  12440-3 0  9993
2 51622  87.9111  31.1070 0002981  66.9722 293.1724 13.17650415196950
