[{"OBJECT_NAME":"ONEWEB-0412","OBJECT_ID":"2021-132W","EPOCH":"2026-02-09T22:27:00.483264","MEAN_MOTION":13.18687523,"ECCENTRICITY":0.0001619,"INCLINATION":87.9228,"RA_OF_ASC_NODE":0.721,"ARG_OF_PERICENTER":75.8083,"MEAN_ANOMALY":284.3228,"EPHEMERIS_TYPE":0,"CLASSIFICATION_TYPE":"U","NORAD_CAT_ID":50489,"ELEMENT_SET_NO":999,"REV_AT_EPOCH":20488,"BSTAR":-1.0667e-5,"MEAN_MOTION_DOT":9.0e-8,"MEAN_MOTION_DDOT":0},{"OBJECT_NAME":"ONEWEB-0413","OBJECT_ID":"2021-132X","EPOCH":"2026-02-09T22:34:07.979232","MEAN_MOTION":13.18684128,"ECCENTRICITY":0.0001558,"INCLINATION":87.9216,"RA_OF_ASC_NODE":0.7271,"ARG_OF_PERICENTER":84.71,"MEAN_ANOMALY":275.421,"EPHEMERIS_TYPE":0,"CLASSIFICATION_TYPE":"U","NORAD_CAT_ID":50490,"ELEMENT_SET_NO":999,"REV_AT_EPOCH":20482,"BSTAR":-3.3333e-5,"MEAN_MOTION_DOT":0,"MEAN_MOTION_DDOT":0},{"OBJECT_NAME":"ONEWEB-0414","OBJECT_ID":"2021-132Y","EPOCH":"2026-02-09T20:23:31.107840","MEAN_MOTION":13.18685937,"ECCENTRICITY":0.0001815,"INCLINATION":87.9222,"RA_OF_ASC_NODE":0.7143,"ARG_OF_PERICENTER":76.0657,"MEAN_ANOMALY":284.0677,"EPHEMERIS_TYPE":0,"CLASSIFICATION_TYPE":"U","NORAD_CAT_ID":50491,"ELEMENT_SET_NO":999,"REV_AT_EPOCH":20484,"BSTAR":-3.9659e-5,"MEAN_MOTION_DOT":-3.0e-8,"MEAN_MOTION_DDOT":0},{"OBJECT_NAME":"ONEWEB-0417","OBJECT_ID":"2021-132Z","EPOCH":"2026-02-09T22:24:37.085184","MEAN_MOTION":13.18687097,"ECCENTRICITY":0.0002083,"INCLINATION":87.9215,"RA_OF_ASC_NODE":0.7276,"ARG_OF_PERICENTER":80.0139,"MEAN_ANOMALY":280.1228,"EPHEMERIS_TYPE":0,"CLASSIFICATION_TYPE":"U","NORAD_CAT_ID":50492,"ELEMENT_SET_NO":999,"REV_AT_EPOCH":20483,"BSTAR":-0.00036807,"MEAN_MOTION_DOT":-1.32e-6,"MEAN_MOTION_DDOT":0},{"OBJECT_NAME":"ONEWEB-0418","OBJECT_ID":"2021-132AA","EPOCH":"2026-02-09T22:38:41.578656","MEAN_MOTION":13.18687076,"ECCENTRICITY":0.0002332,"INCLINATION":87.9226,"RA_OF_ASC_NODE":0.7131,"ARG_OF_PERICENTER":79.6376,"MEAN_ANOMALY":280.5019,"EPHEMERIS_TYPE":0,"CLASSIFICATION_TYPE":"U","NORAD_CAT_ID":50493,"ELEMENT_SET_NO":999,"REV_AT_EPOCH":20489,"BSTAR":-9.4567e-5,"MEAN_MOTION_DOT":-2.4e-7,"MEAN_MOTION_DDOT":0},{"OBJECT_NAME":"ONEWEB-0419","OBJECT_ID":"2021-132AB","EPOCH":"2026-02-09T21:15:45.338688","MEAN_MOTION":13.18688012,"ECCENTRICITY":0.0002149,"INCLINATION":87.9226,"RA_OF_ASC_NODE":0.7243,"ARG_OF_PERICENTER":84.6132,"MEAN_ANOMALY":275.5245,"EPHEMERIS_TYPE":0,"CLASSIFICATION_TYPE":"U","NORAD_CAT_ID":50494,"ELEMENT_SET_NO":999,"REV_AT_EPOCH":20480,"BSTAR":0.00011146,"MEAN_MOTION_DOT":5.7e-7,"MEAN_MOTION_DDOT":0},{"OBJECT_NAME":"ONEWEB-0420","OBJECT_ID":"2021-132AC","EPOCH":"2026-02-09T20:25:51.799008","MEAN_MOTION":13.18687914,"ECCENTRICITY":0.0001708,"INCLINATION":87.9225,"RA_OF_ASC_NODE":0.7445,"ARG_OF_PERICENTER":85.5826,"MEAN_ANOMALY":274.5501,"EPHEMERIS_TYPE":0,"CLASSIFICATION_TYPE":"U","NORAD_CAT_ID":50495,"ELEMENT_SET_NO":999,"REV_AT_EPOCH":20479,"BSTAR":-4.7693e-5,"MEAN_MOTION_DOT":-6.0e-8,"MEAN_MOTION_DDOT":0},{"OBJECT_NAME":"ONEWEB-0421","OBJECT_ID":"2021-132AD","EPOCH":"2026-02-09T20:16:22.137888","MEAN_MOTION":13.18687753,"ECCENTRICITY":0.0001784,"INCLINATION":87.9222,"RA_OF_ASC_NODE":0.7376,"ARG_OF_PERICENTER":71.207,"MEAN_ANOMALY":288.9255,"EPHEMERIS_TYPE":0,"CLASSIFICATION_TYPE":"U","NORAD_CAT_ID":50496,"ELEMENT_SET_NO":999,"REV_AT_EPOCH":20483,"BSTAR":5.1315e-5,"MEAN_MOTION_DOT":3.3e-7,"MEAN_MOTION_DDOT":0},{"OBJECT_NAME":"ONEWEB-0424","OBJECT_ID":"2021-132AE","EPOCH":"2026-02-09T21:08:37.992192","MEAN_MOTION":13.18687405,"ECCENTRICITY":0.0002097,"INCLINATION":87.9226,"RA_OF_ASC_NODE":0.7252,"ARG_OF_PERICENTER":88.5628,"MEAN_ANOMALY":271.5745,"EPHEMERIS_TYPE":0,"CLASSIFICATION_TYPE":"U","NORAD_CAT_ID":50497,"ELEMENT_SET_NO":999,"REV_AT_EPOCH":20486,"BSTAR":1.4128e-5,"MEAN_MOTION_DOT":1.8e-7,"MEAN_MOTION_DDOT":0},{"OBJECT_NAME":"ONEWEB-0426","OBJECT_ID":"2021-132AF","EPOCH":"2026-02-09T20:11:37.252896","MEAN_MOTION":13.18687578,"ECCENTRICITY":0.0002162,"INCLINATION":87.9226,"RA_OF_ASC_NODE":0.7252,"ARG_OF_PERICENTER":63.4057,"MEAN_ANOMALY":296.7297,"EPHEMERIS_TYPE":0,"CLASSIFICATION_TYPE":"U","NORAD_CAT_ID":50498,"ELEMENT_SET_NO":999,"REV_AT_EPOCH":20480,"BSTAR":7.0938e-5,"MEAN_MOTION_DOT":4.1e-7,"MEAN_MOTION_DDOT":0},{"OBJECT_NAME":"ONEWEB-0427","OBJECT_ID":"2021-132AG","EPOCH":"2026-02-09T21:06:15.376032","MEAN_MOTION":13.18685274,"ECCENTRICITY":0.0002101,"INCLINATION":87.9224,"RA_OF_ASC_NODE":0.7038,"ARG_OF_PERICENTER":77.1198,"MEAN_ANOMALY":283.0169,"EPHEMERIS_TYPE":0,"CLASSIFICATION_TYPE":"U","NORAD_CAT_ID":50499,"ELEMENT_SET_NO":999,"REV_AT_EPOCH":20483,"BSTAR":5.2807e-5,"MEAN_MOTION_DOT":3.4e-7,"MEAN_MOTION_DDOT":0},{"OBJECT_NAME":"ONEWEB-0429","OBJECT_ID":"2021-132AH","EPOCH":"2026-02-09T22:36:29.606112","MEAN_MOTION":13.1868754,"ECCENTRICITY":0.0001717,"INCLINATION":87.9226,"RA_OF_ASC_NODE":0.7245,"ARG_OF_PERICENTER":84.5873,"MEAN_ANOMALY":275.5455,"EPHEMERIS_TYPE":0,"CLASSIFICATION_TYPE":"U","NORAD_CAT_ID":50500,"ELEMENT_SET_NO":999,"REV_AT_EPOCH":20481,"BSTAR":-0.00024179,"MEAN_MOTION_DOT":-8.2e-7,"MEAN_MOTION_DDOT":0},{"OBJECT_NAME":"ONEWEB-0430","OBJECT_ID":"2021-132AJ","EPOCH":"2026-02-09T22:19:53.844384","MEAN_MOTION":13.18686863,"ECCENTRICITY":0.0001879,"INCLINATION":87.9222,"RA_OF_ASC_NODE":0.7234,"ARG_OF_PERICENTER":90.3544,"MEAN_ANOMALY":269.7804,"EPHEMERIS_TYPE":0,"CLASSIFICATION_TYPE":"U","NORAD_CAT_ID":50501,"ELEMENT_SET_NO":999,"REV_AT_EPOCH":20485,"BSTAR":-1.6478e-5,"MEAN_MOTION_DOT":6.0e-8,"MEAN_MOTION_DDOT":0},{"OBJECT_NAME":"ONEWEB-0432","OBJECT_ID":"2021-132AK","EPOCH":"2026-02-09T21:17:09.048192","MEAN_MOTION":13.18642537,"ECCENTRICITY":0.0002576,"INCLINATION":87.922,"RA_OF_ASC_NODE":0.7008,"ARG_OF_PERICENTER":86.2707,"MEAN_ANOMALY":273.872,"EPHEMERIS_TYPE":0,"CLASSIFICATION_TYPE":"U","NORAD_CAT_ID":50502,"ELEMENT_SET_NO":999,"REV_AT_EPOCH":20480,"BSTAR":-8.2392e-5,"MEAN_MOTION_DOT":-2.0e-7,"MEAN_MOTION_DDOT":0},{"OBJECT_NAME":"ONEWEB-0440","OBJECT_ID":"2021-132AL","EPOCH":"2026-02-09T22:48:22.953888","MEAN_MOTION":13.18687526,"ECCENTRICITY":0.0001473,"INCLINATION":87.9226,"RA_OF_ASC_NODE":0.7088,"ARG_OF_PERICENTER":75.2365,"MEAN_ANOMALY":284.893,"EPHEMERIS_TYPE":0,"CLASSIFICATION_TYPE":"U","NORAD_CAT_ID":50503,"ELEMENT_SET_NO":999,"REV_AT_EPOCH":20480,"BSTAR":-0.00017077,"MEAN_MOTION_DOT":-5.4e-7,"MEAN_MOTION_DDOT":0},{"OBJECT_NAME":"ONEWEB-0450","OBJECT_ID":"2021-132AM","EPOCH":"2026-02-09T22:39:03.948480","MEAN_MOTION":13.18687342,"ECCENTRICITY":0.0001686,"INCLINATION":87.9216,"RA_OF_ASC_NODE":0.7285,"ARG_OF_PERICENTER":93.2387,"MEAN_ANOMALY":266.8938,"EPHEMERIS_TYPE":0,"CLASSIFICATION_TYPE":"U","NORAD_CAT_ID":50504,"ELEMENT_SET_NO":999,"REV_AT_EPOCH":20483,"BSTAR":-0.00039086,"MEAN_MOTION_DOT":-1.41e-6,"MEAN_MOTION_DDOT":0},{"OBJECT_NAME":"ONEWEB-0410","OBJECT_ID":"2022-012A","EPOCH":"2026-02-10T00:34:51.137472","MEAN_MOTION":13.17650415,"ECCENTRICITY":0.0002981,"INCLINATION":87.9111,"RA_OF_ASC_NODE":31.107,"ARG_OF_PERICENTER":66.9722,"MEAN_ANOMALY":293.1724,"EPHEMERIS_TYPE":0,"CLASSIFICATION_TYPE":"U","NORAD_CAT_ID":51622,"ELEMENT_SET_NO":999,"REV_AT_EPOCH":19695,"BSTAR":0.0001244,"MEAN_MOTION_DOT":6.1e-7,"MEAN_MOTION_DDOT":0}]
